{
  "type": "FeatureCollection",
  "features": [
    {
      "type": "Feature",
      "properties": {
        "norad_id": 67005,
        "name": "STARLINK-36148",
        "group": "last-30-days",
        "lat": -34.37393835300886,
        "lon": -70.8587559228177,
        "alt_km": 297.32010471227204,
        "timestamp": "2025-12-19T16:54:42.970454+00:00",
        "meta_object_name": "STARLINK-36148",
        "meta_object_id": "2025-293C",
        "meta_epoch": "2025-12-19T06:00:02.000160",
        "meta_mean_motion": 15.94182839,
        "meta_eccentricity": 0.00039872,
        "meta_inclination": 69.9951,
        "meta_ra_of_asc_node": 304.8962,
        "meta_arg_of_pericenter": 271.9667,
        "meta_mean_anomaly": 323.5535,
        "meta_ephemeris_type": 0,
        "meta_classification_type": "U",
        "meta_norad_cat_id": 67005,
        "meta_element_set_no": 999,
        "meta_rev_at_epoch": 130,
        "meta_bstar": -0.0028968495,
        "meta_mean_motion_dot": -0.01077187,
        "meta_mean_motion_ddot": 0.00035447112,
        "tle_line1": "1 67005U 25293C   25353.25002315 -.01077187  35447-3 -28968-2 0  9999",
        "tle_line2": "2 67005  69.9951 304.8962 0003987 271.9667 323.5535 15.94182839  1306"
      },
      "geometry": {
        "type": "Point",
        "coordinates": [
          -70.8587559228177,
          -34.37393835300886
        ]
      }
    },
    {
      "type": "Feature",
      "properties": {
        "norad_id": 67006,
        "name": "STARLINK-36156",
        "group": "last-30-days",
        "lat": -29.802356129757644,
        "lon": -68.47900099297982,
        "alt_km": 296.9671342815918,
        "timestamp": "2025-12-19T16:54:42.970464+00:00",
        "meta_object_name": "STARLINK-36156",
        "meta_object_id": "2025-293D",
        "meta_epoch": "2025-12-19T06:00:02.000160",
        "meta_mean_motion": 15.94314602,
        "meta_eccentricity": 0.00039587,
        "meta_inclination": 69.9947,
        "meta_ra_of_asc_node": 304.8898,
        "meta_arg_of_pericenter": 270.2234,
        "meta_mean_anomaly": 330.0888,
        "meta_ephemeris_type": 0,
        "meta_classification_type": "U",
        "meta_norad_cat_id": 67006,
        "meta_element_set_no": 999,
        "meta_rev_at_epoch": 130,
        "meta_bstar": -0.0029006201,
        "meta_mean_motion_dot": -0.01086051,
        "meta_mean_motion_ddot": 0.00036036296,
        "tle_line1": "1 67006U 25293D   25353.25002315 -.01086051  36036-3 -29006-2 0  9999",
        "tle_line2": "2 67006  69.9947 304.8898 0003958 270.2234 330.0888 15.94314602  1309"
      },
      "geometry": {
        "type": "Point",
        "coordinates": [
          -68.47900099297982,
          -29.802356129757644
        ]
      }
    },
    {
      "type": "Feature",
      "properties": {
        "norad_id": 67007,
        "name": "STARLINK-36123",
        "group": "last-30-days",
        "lat": -31.87243204961475,
        "lon": -69.52493912588575,
        "alt_km": 297.2004853445105,
        "timestamp": "2025-12-19T16:54:42.970474+00:00",
        "meta_object_name": "STARLINK-36123",
        "meta_object_id": "2025-293E",
        "meta_epoch": "2025-12-19T06:00:02.000160",
        "meta_mean_motion": 15.94260692,
        "meta_eccentricity": 0.00039139,
        "meta_inclination": 69.9944,
        "meta_ra_of_asc_node": 304.8924,
        "meta_arg_of_pericenter": 269.8508,
        "meta_mean_anomaly": 328.2935,
        "meta_ephemeris_type": 0,
        "meta_classification_type": "U",
        "meta_norad_cat_id": 67007,
        "meta_element_set_no": 999,
        "meta_rev_at_epoch": 130,
        "meta_bstar": -0.0029183448,
        "meta_mean_motion_dot": -0.01089523,
        "meta_mean_motion_ddot": 0.00036229177,
        "tle_line1": "1 67007U 25293E   25353.25002315 -.01089523  36229-3 -29183-2 0  9997",
        "tle_line2": "2 67007  69.9944 304.8924 0003913 269.8508 328.2935 15.94260692  1307"
      },
      "geometry": {
        "type": "Point",
        "coordinates": [
          -69.52493912588575,
          -31.87243204961475
        ]
      }
    },
    {
      "type": "Feature",
      "properties": {
        "norad_id": 67008,
        "name": "STARLINK-36163",
        "group": "last-30-days",
        "lat": -27.050130281787798,
        "lon": -67.15923185262959,
        "alt_km": 296.6778983002405,
        "timestamp": "2025-12-19T16:54:42.970484+00:00",
        "meta_object_name": "STARLINK-36163",
        "meta_object_id": "2025-293F",
        "meta_epoch": "2025-12-19T06:00:02.000160",
        "meta_mean_motion": 15.94401265,
        "meta_eccentricity": 0.00039286,
        "meta_inclination": 69.9949,
        "meta_ra_of_asc_node": 304.8865,
        "meta_arg_of_pericenter": 271.0344,
        "meta_mean_anomaly": 332.14,
        "meta_ephemeris_type": 0,
        "meta_classification_type": "U",
        "meta_norad_cat_id": 67008,
        "meta_element_set_no": 999,
        "meta_rev_at_epoch": 130,
        "meta_bstar": -0.0029370963,
        "meta_mean_motion_dot": -0.01104596,
        "meta_mean_motion_ddot": 0.00037213458,
        "tle_line1": "1 67008U 25293F   25353.25002315 -.01104596  37213-3 -29371-2 0  9999",
        "tle_line2": "2 67008  69.9949 304.8865 0003928 271.0344 332.1400 15.94401265  1300"
      },
      "geometry": {
        "type": "Point",
        "coordinates": [
          -67.15923185262959,
          -27.050130281787798
        ]
      }
    },
    {
      "type": "Feature",
      "properties": {
        "norad_id": 67009,
        "name": "STARLINK-36118",
        "group": "last-30-days",
        "lat": -24.790100006359644,
        "lon": -66.12743020182067,
        "alt_km": 296.49267767700076,
        "timestamp": "2025-12-19T16:54:42.970520+00:00",
        "meta_object_name": "STARLINK-36118",
        "meta_object_id": "2025-293G",
        "meta_epoch": "2025-12-19T06:00:02.000160",
        "meta_mean_motion": 15.94465934,
        "meta_eccentricity": 0.00039106,
        "meta_inclination": 69.9949,
        "meta_ra_of_asc_node": 304.8839,
        "meta_arg_of_pericenter": 269.966,
        "meta_mean_anomaly": 335.5516,
        "meta_ephemeris_type": 0,
        "meta_classification_type": "U",
        "meta_norad_cat_id": 67009,
        "meta_element_set_no": 999,
        "meta_rev_at_epoch": 130,
        "meta_bstar": -0.0029413754,
        "meta_mean_motion_dot": -0.01109952,
        "meta_mean_motion_ddot": 0.00037572167,
        "tle_line1": "1 67009U 25293G   25353.25002315 -.01109952  37572-3 -29414-2 0  9997",
        "tle_line2": "2 67009  69.9949 304.8839 0003910 269.9660 335.5516 15.94465934  1308"
      },
      "geometry": {
        "type": "Point",
        "coordinates": [
          -66.12743020182067,
          -24.790100006359644
        ]
      }
    },
    {
      "type": "Feature",
      "properties": {
        "norad_id": 67010,
        "name": "STARLINK-36189",
        "group": "last-30-days",
        "lat": -20.75620374718894,
        "lon": -64.38203878240142,
        "alt_km": 296.05963506916396,
        "timestamp": "2025-12-19T16:54:42.970532+00:00",
        "meta_object_name": "STARLINK-36189",
        "meta_object_id": "2025-293H",
        "meta_epoch": "2025-12-19T06:00:02.000160",
        "meta_mean_motion": 15.9458135,
        "meta_eccentricity": 0.00038768,
        "meta_inclination": 69.995,
        "meta_ra_of_asc_node": 304.8789,
        "meta_arg_of_pericenter": 269.5657,
        "meta_mean_anomaly": 340.1126,
        "meta_ephemeris_type": 0,
        "meta_classification_type": "U",
        "meta_norad_cat_id": 67010,
        "meta_element_set_no": 999,
        "meta_rev_at_epoch": 130,
        "meta_bstar": -0.0029332942,
        "meta_mean_motion_dot": -0.0111366,
        "meta_mean_motion_ddot": 0.00037849155,
        "tle_line1": "1 67010U 25293H   25353.25002315 -.01113660  37849-3 -29333-2 0  9997",
        "tle_line2": "2 67010  69.9950 304.8789 0003876 269.5657 340.1126 15.94581350  1309"
      },
      "geometry": {
        "type": "Point",
        "coordinates": [
          -64.38203878240142,
          -20.75620374718894
        ]
      }
    },
    {
      "type": "Feature",
      "properties": {
        "norad_id": 67011,
        "name": "STARLINK-36167",
        "group": "last-30-days",
        "lat": -23.067461627714092,
        "lon": -65.36809234718436,
        "alt_km": 296.2993740263273,
        "timestamp": "2025-12-19T16:54:42.970542+00:00",
        "meta_object_name": "STARLINK-36167",
        "meta_object_id": "2025-293J",
        "meta_epoch": "2025-12-19T06:00:02.000160",
        "meta_mean_motion": 15.94508836,
        "meta_eccentricity": 0.00039091,
        "meta_inclination": 69.9949,
        "meta_ra_of_asc_node": 304.882,
        "meta_arg_of_pericenter": 269.8323,
        "meta_mean_anomaly": 337.4674,
        "meta_ephemeris_type": 0,
        "meta_classification_type": "U",
        "meta_norad_cat_id": 67011,
        "meta_element_set_no": 999,
        "meta_rev_at_epoch": 130,
        "meta_bstar": -0.0029111573,
        "meta_mean_motion_dot": -0.0110113,
        "meta_mean_motion_ddot": 0.00037039266,
        "tle_line1": "1 67011U 25293J   25353.25002315 -.01101130  37039-3 -29112-2 0  9993",
        "tle_line2": "2 67011  69.9949 304.8820 0003909 269.8323 337.4674 15.94508836  1309"
      },
      "geometry": {
        "type": "Point",
        "coordinates": [
          -65.36809234718436,
          -23.067461627714092
        ]
      }
    }
  ]
}